     2.10           NAVIGATION DATA                         RINEX VERSION / TYPE
Spider v7.5.1.8670  SMO                 2023 09 12 00:33    PGM / RUN BY / DATE 
    2.2352D-08  2.2352D-08 -1.1921D-07 -1.1921D-07          ION ALPHA           
    1.2902D+05  1.6384D+04 -2.6214D+05  3.2768D+05          ION BETA            
    1.862645149231D-09 6.217248937901D-15   319488     2279 DELTA-UTC: A0,A1,T,W
    18                                                      LEAP SECONDS        
                                                            END OF HEADER       
21 23 09 11 20 00  0.0 1.490996219218D-04-6.821210263297D-13 0.000000000000D+00
    9.100000000000D+01 1.188750000000D+02 4.172316714346D-09 2.685355045942D+00
    6.021931767464D-06 2.478551259264D-02 6.975606083870D-06 5.153583150864D+03
    1.584000000000D+05 1.583248376846D-07 2.854850340890D-01 3.911554813385D-07
    9.621273117559D-01 2.396562500000D+02-7.088267562910D-01-7.762823273083D-09
    1.996511705959D-10 1.000000000000D+00 2.279000000000D+03 0.000000000000D+00
    2.800000000000D+00 0.000000000000D+00-1.024454832077D-08 9.100000000000D+01
    1.511400000000D+05 0.000000000000D+00
14 23 09 11 20 00  0.0 1.819645985961D-04 1.136868377216D-11 0.000000000000D+00
    1.280000000000D+02-7.875000000000D+00 5.137713809944D-09-9.347123030221D-01
   -4.954636096954D-07 3.558440483175D-03 5.103647708893D-06 5.153668416977D+03
    1.584000000000D+05 1.005828380585D-07-1.691807643425D+00-9.685754776001D-08
    9.474128384504D-01 2.785625000000D+02-2.943106877838D+00-8.320704125708D-09
   -3.478716203986D-10 1.000000000000D+00 2.279000000000D+03 0.000000000000D+00
    2.000000000000D+00 0.000000000000D+00-7.916241884232D-09 8.960000000000D+02
    1.511400000000D+05 0.000000000000D+00
 3 23 09 11 20 00  0.0-1.404942013323D-04 2.012257027673D-11 0.000000000000D+00
    1.500000000000D+01-3.878125000000D+01 4.451971236108D-09-6.871583033587D-01
   -1.829117536545D-06 5.128922057338D-03 2.330169081688D-06 5.153599987030D+03
    1.584000000000D+05 9.313225746155D-09 1.421781109610D+00 1.061707735062D-07
    9.801885729713D-01 3.504375000000D+02 1.106289953600D+00-8.312846411229D-09
    5.178787260141D-11 1.000000000000D+00 2.279000000000D+03 0.000000000000D+00
    2.000000000000D+00 0.000000000000D+00 1.862645149231D-09 1.500000000000D+01
    1.511400000000D+05 0.000000000000D+00
30 23 09 11 20 00  0.0-4.886561073363D-04 3.296918293927D-12 0.000000000000D+00
    3.600000000000D+01 2.728125000000D+01 5.212359877049D-09-2.656296984174D-01
    1.328065991402D-06 6.581694236957D-03 8.519738912582D-06 5.153767953873D+03
    1.584000000000D+05-1.862645149231D-09-2.762198895208D+00 6.705522537231D-08
    9.357888995467D-01 2.000312500000D+02-2.546386074881D+00-8.351419111818D-09
    3.217991151327D-10 1.000000000000D+00 2.279000000000D+03 0.000000000000D+00
    2.000000000000D+00 0.000000000000D+00 3.725290298462D-09 3.600000000000D+01
    1.511400000000D+05 0.000000000000D+00
17 23 09 11 20 00  0.0 7.236693054438D-04 2.273736754432D-13 0.000000000000D+00
    3.600000000000D+01 1.771875000000D+01 3.753370503290D-09 2.671797069358D+00
    1.113861799240D-06 1.370930543635D-02 1.060590147972D-05 5.153582330704D+03
    1.584000000000D+05 9.685754776001D-08-6.118783003529D-01 4.097819328308D-08
    9.728488701232D-01 1.765625000000D+02-1.400701570443D+00-7.359234999171D-09
   -4.135886633172D-10 1.000000000000D+00 2.279000000000D+03 0.000000000000D+00
    2.000000000000D+00 0.000000000000D+00-1.117587089539D-08 3.600000000000D+01
    1.511400000000D+05 0.000000000000D+00
22 23 09 11 20 00  0.0 1.237262040377D-04-7.389644451905D-12 0.000000000000D+00
    9.500000000000D+01-1.065625000000D+01 4.657336738489D-09-3.036270753001D+00
   -4.507601261139D-07 1.534585095942D-02 5.222856998444D-06 5.153604526520D+03
    1.584000000000D+05 1.154839992523D-07-1.629947061106D+00 1.285225152969D-07
    9.629586544532D-01 2.809375000000D+02-1.190436047697D+00-7.836755244739D-09
   -3.771585543877D-10 1.000000000000D+00 2.279000000000D+03 0.000000000000D+00
    4.000000000000D+00 0.000000000000D+00-1.117587089539D-08 9.500000000000D+01
    1.511400000000D+05 0.000000000000D+00
 7 23 09 11 20 00  0.0 7.000053301454D-05-1.057287590811D-11 0.000000000000D+00
    4.900000000000D+01 2.306250000000D+01 5.019494597747D-09-1.791070734200D-01
    1.300126314163D-06 1.754814910237D-02 8.678063750267D-06 5.153722351074D+03
    1.584000000000D+05-7.078051567078D-08-2.766680971916D+00 1.527369022369D-07
    9.506623949732D-01 2.073125000000D+02-2.173233977907D+00-8.461066514087D-09
    3.253707026030D-10 1.000000000000D+00 2.279000000000D+03 0.000000000000D+00
    2.000000000000D+00 0.000000000000D+00-1.117587089539D-08 4.900000000000D+01
    1.511400000000D+05 0.000000000000D+00
 2 23 09 11 20 00  0.0-5.550971254706D-04 4.433786671143D-12 0.000000000000D+00
    1.000000000000D+01 1.116562500000D+02 4.079098392396D-09-3.075239005123D+00
    5.550682544708D-06 1.597942656372D-02 6.783753633499D-06 5.153756681442D+03
    1.584000000000D+05 2.235174179077D-07 2.911350226680D-01 9.313225746155D-08
    9.678388087255D-01 2.473437500000D+02-1.347609100277D+00-7.719964223440D-09
    3.350139610170D-10 1.000000000000D+00 2.279000000000D+03 0.000000000000D+00
    2.000000000000D+00 0.000000000000D+00-1.769512891769D-08 1.000000000000D+01
    1.511400000000D+05 0.000000000000D+00
 8 23 09 11 20 00  0.0-1.417594030499D-04-1.932676241267D-12 0.000000000000D+00
    3.700000000000D+01 2.062500000000D+01 4.278035259375D-09 2.667962174442D+00
    9.983777999878D-07 8.616972947493D-03 1.068040728569D-05 5.153751600266D+03
    1.584000000000D+05-1.210719347000D-07-7.025470473102D-01-6.705522537231D-08
    9.571295037599D-01 1.714062500000D+02 2.713643255848D-01-7.783181210641D-09
   -4.575190504230D-10 1.000000000000D+00 2.279000000000D+03 0.000000000000D+00
    2.800000000000D+00 0.000000000000D+00 5.122274160385D-09 3.700000000000D+01
    1.511400000000D+05 0.000000000000D+00
19 23 09 11 20 00  0.0 3.701657988131D-04 5.115907697473D-12 0.000000000000D+00
    7.200000000000D+01 2.250000000000D+01 3.858732000595D-09-1.518417931813D+00
    1.234933733940D-06 9.432054124773D-03 1.101195812225D-05 5.153649721146D+03
    1.584000000000D+05-1.583248376846D-07-5.674279865561D-01 1.862645149231D-09
    9.719822681743D-01 1.750625000000D+02 2.410097128779D+00-7.716035810290D-09
   -2.025084405721D-10 1.000000000000D+00 2.279000000000D+03 0.000000000000D+00
    2.800000000000D+00 0.000000000000D+00-1.536682248116D-08 7.200000000000D+01
    1.511400000000D+05 0.000000000000D+00
 9 23 09 11 20 00  0.0-6.238697096705D-05 1.023181539495D-11 0.000000000000D+00
    6.300000000000D+01-1.015625000000D+02 4.581262036396D-09-3.051242530190D+00
   -5.187466740608D-06 2.726141596213D-03 9.166076779366D-06 5.153554201126D+03
    1.584000000000D+05 5.960464477539D-08 2.445021562265D+00 8.940696716309D-08
    9.569465088003D-01 2.009375000000D+02 1.940534090005D+00-7.987832617573D-09
    7.857469883077D-12 1.000000000000D+00 2.279000000000D+03 0.000000000000D+00
    2.000000000000D+00 0.000000000000D+00 9.313225746155D-10 6.300000000000D+01
    1.511400000000D+05 0.000000000000D+00
 8 23 09 11 19 59 44.0-1.417701132596D-04-1.932676241267D-12 0.000000000000D+00
    3.000000000000D+00 2.062500000000D+01 4.278035259375D-09 2.665628098887D+00
    9.983777999878D-07 8.616977487691D-03 1.068040728569D-05 5.153751604080D+03
    1.583840000000D+05-1.210719347000D-07-7.025469097959D-01-6.705522537231D-08
    9.571295125375D-01 1.713750000000D+02 2.713648185882D-01-7.783181210641D-09
   -4.578762091700D-10 1.000000000000D+00 2.279000000000D+03 0.000000000000D+00
    2.000000000000D+00 0.000000000000D+00 5.122274160385D-09 3.000000000000D+00
    1.511100000000D+05 0.000000000000D+00
19 23 09 11 19 59 44.0 3.701662644744D-04 5.229594535194D-12 0.000000000000D+00
    2.000000000000D+00 2.250000000000D+01 3.859089492408D-09-1.520751907890D+00
    1.234933733940D-06 9.432052494958D-03 1.101195812225D-05 5.153649723053D+03
    1.583840000000D+05-1.583248376846D-07-5.674278636710D-01 1.862645149231D-09
    9.719822725631D-01 1.750625000000D+02 2.410097301404D+00-7.716035810290D-09
   -2.028655993191D-10 1.000000000000D+00 2.279000000000D+03 0.000000000000D+00
    2.000000000000D+00 0.000000000000D+00-1.536682248116D-08 2.000000000000D+00
    1.511100000000D+05 0.000000000000D+00
 6 23 09 11 20 00  0.0 5.519529804587D-04-6.707523425575D-12 0.000000000000D+00
    5.200000000000D+01 9.228125000000D+01 3.673724435771D-09 7.332392587926D-01
    4.915520548820D-06 2.754960441962D-03 6.813555955887D-06 5.153740827560D+03
    1.584000000000D+05 2.793967723846D-08 3.837118624535D-01-6.705522537231D-08
    9.896911460716D-01 2.599375000000D+02-8.062084042161D-01-7.788895750593D-09
    3.625151012709D-10 1.000000000000D+00 2.279000000000D+03 0.000000000000D+00
    2.000000000000D+00 0.000000000000D+00 3.725290298462D-09 5.200000000000D+01
    1.511400000000D+05 0.000000000000D+00
22 23 09 11 19 59 44.0 1.237271353602D-04-7.389644451905D-12 0.000000000000D+00
    2.800000000000D+01-1.065625000000D+01 4.657694230303D-09-3.038604585712D+00
   -4.507601261139D-07 1.534585026093D-02 5.222856998444D-06 5.153604532242D+03
    1.583840000000D+05 1.173466444016D-07-1.629946923592D+00 1.303851604462D-07
    9.629586398240D-01 2.809375000000D+02-1.190436120843D+00-7.836755244739D-09
   -3.771585543877D-10 1.000000000000D+00 2.279000000000D+03 0.000000000000D+00
    2.000000000000D+00 0.000000000000D+00-1.117587089539D-08 2.800000000000D+01
    1.511100000000D+05 0.000000000000D+00
